$$SOE
2461302.500000000, A.D. 2026-Sep-19 00:00:00.0000, 2.657449579786530E+09, 2.611899948900939E+09, -1.652173289516603E+09,
2461309.500000000, A.D. 2026-Sep-26 00:00:00.0000, 2.654807140310570E+09, 2.613930278342253E+09, -1.652700149801937E+09,
2461316.500000000, A.D. 2026-Oct-03 00:00:00.0000, 2.652162819666522E+09, 2.615958677293948E+09, -1.653225822699739E+09,
2461323.500000000, A.D. 2026-Oct-10 00:00:00.0000, 2.649516619168911E+09, 2.617985141900686E+09, -1.653750307617823E+09,
2461330.500000000, A.D. 2026-Oct-17 00:00:00.0000, 2.646868540514932E+09, 2.620009668172749E+09, -1.654273603988352E+09,
2461337.500000000, A.D. 2026-Oct-24 00:00:00.0000, 2.644218585722610E+09, 2.622032251959085E+09, -1.654795711270036E+09,
2461344.500000000, A.D. 2026-Oct-31 00:00:00.0000, 2.641566757157169E+09, 2.624052888757638E+09, -1.655316628972360E+09,
2461351.500000000, A.D. 2026-Nov-07 00:00:00.0000, 2.638913057984684E+09, 2.626071573437028E+09, -1.655836356726726E+09,
2461358.500000000, A.D. 2026-Nov-14 00:00:00.0000, 2.636257493253881E+09, 2.628088300757034E+09, -1.656354894350217E+09,
2461365.500000000, A.D. 2026-Nov-21 00:00:00.0000, 2.633600069794341E+09, 2.630103067369730E+09, -1.656872241679846E+09,
2461372.500000000, A.D. 2026-Nov-28 00:00:00.0000, 2.630940793933015E+09, 2.632115872293229E+09, -1.657388398331316E+09,
2461379.500000000, A.D. 2026-Dec-05 00:00:00.0000, 2.628279670648585E+09, 2.634126715201697E+09, -1.657903363767632E+09,
2461386.500000000, A.D. 2026-Dec-12 00:00:00.0000, 2.625616704328587E+09, 2.636135595642614E+09, -1.658417137438132E+09,
2461393.500000000, A.D. 2026-Dec-19 00:00:00.0000, 2.622951899242054E+09, 2.638142513187732E+09, -1.658929718814098E+09,
2461400.500000000, A.D. 2026-Dec-26 00:00:00.0000, 2.620285259585227E+09, 2.640147467649624E+09, -1.659441107378566E+09,
2461407.500000000, A.D. 2027-Jan-02 00:00:00.0000, 2.617616789375920E+09, 2.642150459172812E+09, -1.659951302611095E+09,
2461414.500000000, A.D. 2027-Jan-09 00:00:00.0000, 2.614946492312865E+09, 2.644151488219456E+09, -1.660460303976422E+09,
2461421.500000000, A.D. 2027-Jan-16 00:00:00.0000, 2.612274371634339E+09, 2.646150555458223E+09, -1.660968110919467E+09,
2461428.500000000, A.D. 2027-Jan-23 00:00:00.0000, 2.609600430020638E+09, 2.648147661516485E+09, -1.661474722874122E+09,
2461435.500000000, A.D. 2027-Jan-30 00:00:00.0000, 2.606924669726523E+09, 2.650142806547875E+09, -1.661980139306968E+09,
2461442.500000000, A.D. 2027-Feb-06 00:00:00.0000, 2.604247093366746E+09, 2.652135989955104E+09, -1.662484359807189E+09,
2461449.500000000, A.D. 2027-Feb-13 00:00:00.0000, 2.601567704892758E+09, 2.654127211487541E+09, -1.662987384080916E+09,
2461456.500000000, A.D. 2027-Feb-20 00:00:00.0000, 2.598886508395432E+09, 2.656116472922494E+09, -1.663489211698019E+09,
2461463.500000000, A.D. 2027-Feb-27 00:00:00.0000, 2.596203506128723E+09, 2.658103777116470E+09, -1.663989841982188E+09,
2461470.500000000, A.D. 2027-Mar-06 00:00:00.0000, 2.593518698771822E+09, 2.660089126348953E+09, -1.664489274164222E+09,
2461477.500000000, A.D. 2027-Mar-13 00:00:00.0000, 2.590832086329210E+09, 2.662072522008168E+09, -1.664987507484445E+09,
2461484.500000000, A.D. 2027-Mar-20 00:00:00.0000, 2.588143668539073E+09, 2.664053964784197E+09, -1.665484541209063E+09,
2461491.500000000, A.D. 2027-Mar-27 00:00:00.0000, 2.585453444992050E+09, 2.666033454820486E+09, -1.665980374623980E+09,
2461498.500000000, A.D. 2027-Apr-03 00:00:00.0000, 2.582761415163184E+09, 2.668010991776015E+09, -1.666475007028706E+09,
2461505.500000000, A.D. 2027-Apr-10 00:00:00.0000, 2.580067578418354E+09, 2.669986574821198E+09, -1.666968437734158E+09,
2461512.500000000, A.D. 2027-Apr-17 00:00:00.0000, 2.577371934017231E+09, 2.671960202553195E+09, -1.667460666067585E+09,
2461519.500000000, A.D. 2027-Apr-24 00:00:00.0000, 2.574674481191989E+09, 2.673931872768481E+09, -1.667951691397010E+09,
2461526.500000000, A.D. 2027-May-01 00:00:00.0000, 2.571975219601405E+09, 2.675901582120478E+09, -1.668441513200376E+09,
2461533.500000000, A.D. 2027-May-08 00:00:00.0000, 2.569274150467729E+09, 2.677869326410647E+09, -1.668930131146440E+09,
2461540.500000000, A.D. 2027-May-15 00:00:00.0000, 2.566571276899469E+09, 2.679835102466475E+09, -1.669417544972176E+09,
2461547.500000000, A.D. 2027-May-22 00:00:00.0000, 2.563866601836215E+09, 2.681798909014751E+09, -1.669903754225025E+09,
2461554.500000000, A.D. 2027-May-29 00:00:00.0000, 2.561160126971431E+09, 2.683760745081877E+09, -1.670388758297697E+09,
2461561.500000000, A.D. 2027-Jun-05 00:00:00.0000, 2.558451853538057E+09, 2.685720609052966E+09, -1.670872556580671E+09,
2461568.500000000, A.D. 2027-Jun-12 00:00:00.0000, 2.555741782949396E+09, 2.687678498821512E+09, -1.671355148512850E+09,
2461575.500000000, A.D. 2027-Jun-19 00:00:00.0000, 2.553029916964250E+09, 2.689634412094637E+09, -1.671836533576296E+09,
2461582.500000000, A.D. 2027-Jun-26 00:00:00.0000, 2.550316257655736E+09, 2.691588346592586E+09, -1.672316711281829E+09,
2461589.500000000, A.D. 2027-Jul-03 00:00:00.0000, 2.547600807315916E+09, 2.693540300150768E+09, -1.672795681156736E+09,
2461596.500000000, A.D. 2027-Jul-10 00:00:00.0000, 2.544883568333047E+09, 2.695490270733084E+09, -1.673273442736998E+09,
2461603.500000000, A.D. 2027-Jul-17 00:00:00.0000, 2.542164543077856E+09, 2.697438256317653E+09, -1.673749995570318E+09,
2461610.500000000, A.D. 2027-Jul-24 00:00:00.0000, 2.539443733955208E+09, 2.699384254592159E+09, -1.674225339249155E+09,
2461617.500000000, A.D. 2027-Jul-31 00:00:00.0000, 2.536721144032652E+09, 2.701328262694314E+09, -1.674699473492049E+09,
2461624.500000000, A.D. 2027-Aug-07 00:00:00.0000, 2.533996778045071E+09, 2.703270278149173E+09, -1.675172398160516E+09,
2461631.500000000, A.D. 2027-Aug-14 00:00:00.0000, 2.531270641474360E+09, 2.705210300749983E+09, -1.675644113021041E+09,
2461638.500000000, A.D. 2027-Aug-21 00:00:00.0000, 2.528542738322330E+09, 2.707148332018399E+09, -1.676114617583794E+09,
2461645.500000000, A.D. 2027-Aug-28 00:00:00.0000, 2.525813071007887E+09, 2.709084373447263E+09, -1.676583911234416E+09,
2461652.500000000, A.D. 2027-Sep-04 00:00:00.0000, 2.523081641207381E+09, 2.711018426028267E+09, -1.677051993346205E+09,
2461659.500000000, A.D. 2027-Sep-11 00:00:00.0000, 2.520348450242767E+09, 2.712950490403198E+09, -1.677518863298945E+09,
2461666.500000000, A.D. 2027-Sep-18 00:00:00.0000, 2.517613499150781E+09, 2.714880566988679E+09, -1.677984520469994E+09,
2461673.500000000, A.D. 2027-Sep-25 00:00:00.0000, 2.514876788662003E+09, 2.716808655997017E+09, -1.678448964225209E+09,
2461680.500000000, A.D. 2027-Oct-02 00:00:00.0000, 2.512138319164846E+09, 2.718734757381046E+09, -1.678912193914619E+09,
2461687.500000000, A.D. 2027-Oct-09 00:00:00.0000, 2.509398090677020E+09, 2.720658870698878E+09, -1.679374208875526E+09,
2461694.500000000, A.D. 2027-Oct-16 00:00:00.0000, 2.506656102887706E+09, 2.722580994844071E+09, -1.679835008453531E+09,
2461701.500000000, A.D. 2027-Oct-23 00:00:00.0000, 2.503912355530470E+09, 2.724501127635950E+09, -1.680294592065978E+09,
2461708.500000000, A.D. 2027-Oct-30 00:00:00.0000, 2.501166849461761E+09, 2.726419265880737E+09, -1.680752959292454E+09,
2461715.500000000, A.D. 2027-Nov-06 00:00:00.0000, 2.498419587281652E+09, 2.728335407031930E+09, -1.681210109793533E+09,
2461722.500000000, A.D. 2027-Nov-13 00:00:00.0000, 2.495670571511501E+09, 2.730249550373922E+09, -1.681666043045418E+09,
2461729.500000000, A.D. 2027-Nov-20 00:00:00.0000, 2.492919803230411E+09, 2.732161695543193E+09, -1.682120758335279E+09,
2461736.500000000, A.D. 2027-Nov-27 00:00:00.0000, 2.490167282788114E+09, 2.734071841351623E+09, -1.682574254923351E+09,
2461743.500000000, A.D. 2027-Dec-04 00:00:00.0000, 2.487413010570729E+09, 2.735979985825948E+09, -1.683026532111476E+09,
2461750.500000000, A.D. 2027-Dec-11 00:00:00.0000, 2.484656987268831E+09, 2.737886126499487E+09, -1.683477589246322E+09,
2461757.500000000, A.D. 2027-Dec-18 00:00:00.0000, 2.481899213922805E+09, 2.739790260617104E+09, -1.683927425710134E+09,
2461764.500000000, A.D. 2027-Dec-25 00:00:00.0000, 2.479139691897480E+09, 2.741692385251368E+09, -1.684376040913033E+09,
2461771.500000000, A.D. 2028-Jan-01 00:00:00.0000, 2.476378422827462E+09, 2.743592497344601E+09, -1.684823434289389E+09,
$$EOE